GSAT0208 (GALILEO 11)   
1 41175U 15079B   26087.31039940  .00000042  00000+0  00000+0 0  9996
2 41175  55.7736 103.4753 0004862 326.1206  33.9010  1.70474153 63812
